[{"OBJECT_NAME":"ALOS (DAICHI)","OBJECT_ID":"2006-002A","EPOCH":"2026-04-23T10:21:27.427680","MEAN_MOTION":14.69932312,"ECCENTRICITY":0.00018911,"INCLINATION":98.1283,"RA_OF_ASC_NODE":69.1883,"ARG_OF_PERICENTER":106.4049,"MEAN_ANOMALY":253.7365,"EPHEMERIS_TYPE":0,"CLASSIFICATION_TYPE":"U","NORAD_CAT_ID":28931,"ELEMENT_SET_NO":999,"REV_AT_EPOCH":8005,"BSTAR":0.00014430371,"MEAN_MOTION_DOT":8.14e-6,"MEAN_MOTION_DDOT":0},{"OBJECT_NAME":"H-2A R/B","OBJECT_ID":"2006-002B","EPOCH":"2026-04-23T09:34:35.440320","MEAN_MOTION":15.17342511,"ECCENTRICITY":0.00525824,"INCLINATION":98.2499,"RA_OF_ASC_NODE":264.3249,"ARG_OF_PERICENTER":89.8207,"MEAN_ANOMALY":270.905,"EPHEMERIS_TYPE":0,"CLASSIFICATION_TYPE":"U","NORAD_CAT_ID":28932,"ELEMENT_SET_NO":999,"REV_AT_EPOCH":10121,"BSTAR":0.00028462362,"MEAN_MOTION_DOT":5.803e-5,"MEAN_MOTION_DDOT":0},{"OBJECT_NAME":"RESURS-DK 1","OBJECT_ID":"2006-021A","EPOCH":"2026-04-23T10:18:42.379488","MEAN_MOTION":15.12973621,"ECCENTRICITY":0.00030634,"INCLINATION":69.9297,"RA_OF_ASC_NODE":121.2721,"ARG_OF_PERICENTER":344.9718,"MEAN_ANOMALY":15.1356,"EPHEMERIS_TYPE":0,"CLASSIFICATION_TYPE":"U","NORAD_CAT_ID":29228,"ELEMENT_SET_NO":999,"REV_AT_EPOCH":9429,"BSTAR":9.8999457e-5,"MEAN_MOTION_DOT":1.643e-5,"MEAN_MOTION_DDOT":0},{"OBJECT_NAME":"CZ-4B R/B","OBJECT_ID":"2006-046C","EPOCH":"2026-04-23T03:06:28.540800","MEAN_MOTION":15.17325741,"ECCENTRICITY":0.00345837,"INCLINATION":97.551,"RA_OF_ASC_NODE":157.9108,"ARG_OF_PERICENTER":112.8103,"MEAN_ANOMALY":247.6789,"EPHEMERIS_TYPE":0,"CLASSIFICATION_TYPE":"U","NORAD_CAT_ID":29507,"ELEMENT_SET_NO":999,"REV_AT_EPOCH":6678,"BSTAR":0.00018303413,"MEAN_MOTION_DOT":3.636e-5,"MEAN_MOTION_DDOT":0},{"OBJECT_NAME":"CZ-2C R/B","OBJECT_ID":"2007-010B","EPOCH":"2026-04-23T14:27:52.075584","MEAN_MOTION":14.2026151,"ECCENTRICITY":0.00594425,"INCLINATION":98.4033,"RA_OF_ASC_NODE":224.6414,"ARG_OF_PERICENTER":162.599,"MEAN_ANOMALY":197.7243,"EPHEMERIS_TYPE":0,"CLASSIFICATION_TYPE":"U","NORAD_CAT_ID":31114,"ELEMENT_SET_NO":999,"REV_AT_EPOCH":98609,"BSTAR":5.3473108e-5,"MEAN_MOTION_DOT":7.6e-7,"MEAN_MOTION_DDOT":0},{"OBJECT_NAME":"COSMO-SKYMED 1","OBJECT_ID":"2007-023A","EPOCH":"2026-04-23T14:11:04.368192","MEAN_MOTION":14.96825453,"ECCENTRICITY":0.00011705,"INCLINATION":97.887,"RA_OF_ASC_NODE":304.9929,"ARG_OF_PERICENTER":100.5515,"MEAN_ANOMALY":259.5838,"EPHEMERIS_TYPE":0,"CLASSIFICATION_TYPE":"U","NORAD_CAT_ID":31598,"ELEMENT_SET_NO":999,"REV_AT_EPOCH":2162,"BSTAR":0.00017538421,"MEAN_MOTION_DOT":1.949e-5,"MEAN_MOTION_DDOT":0},{"OBJECT_NAME":"COSMOS 2428","OBJECT_ID":"2007-029A","EPOCH":"2026-04-23T08:21:01.526976","MEAN_MOTION":14.1294594,"ECCENTRICITY":0.00091999,"INCLINATION":70.9391,"RA_OF_ASC_NODE":109.6077,"ARG_OF_PERICENTER":228.1212,"MEAN_ANOMALY":131.9125,"EPHEMERIS_TYPE":0,"CLASSIFICATION_TYPE":"U","NORAD_CAT_ID":31792,"ELEMENT_SET_NO":999,"REV_AT_EPOCH":97040,"BSTAR":-8.2881509e-5,"MEAN_MOTION_DOT":-2.02e-6,"MEAN_MOTION_DDOT":0},{"OBJECT_NAME":"SL-16 R/B","OBJECT_ID":"2007-029B","EPOCH":"2026-04-23T08:02:13.122240","MEAN_MOTION":14.14843319,"ECCENTRICITY":0.00025339,"INCLINATION":70.974,"RA_OF_ASC_NODE":78.5339,"ARG_OF_PERICENTER":268.5262,"MEAN_ANOMALY":243.5837,"EPHEMERIS_TYPE":0,"CLASSIFICATION_TYPE":"U","NORAD_CAT_ID":31793,"ELEMENT_SET_NO":999,"REV_AT_EPOCH":97168,"BSTAR":0.00015656654,"MEAN_MOTION_DOT":2.54e-6,"MEAN_MOTION_DDOT":0},{"OBJECT_NAME":"KORONAS-FOTON","OBJECT_ID":"2009-003A","EPOCH":"2026-04-23T08:30:42.554016","MEAN_MOTION":15.44498639,"ECCENTRICITY":0.00099559,"INCLINATION":82.4309,"RA_OF_ASC_NODE":229.3984,"ARG_OF_PERICENTER":0.6503,"MEAN_ANOMALY":359.4756,"EPHEMERIS_TYPE":0,"CLASSIFICATION_TYPE":"U","NORAD_CAT_ID":33504,"ELEMENT_SET_NO":999,"REV_AT_EPOCH":95263,"BSTAR":0.00020248369,"MEAN_MOTION_DOT":9.437e-5,"MEAN_MOTION_DDOT":0},{"OBJECT_NAME":"CZ-2C R/B","OBJECT_ID":"2011-030B","EPOCH":"2026-04-23T09:46:48.251424","MEAN_MOTION":14.81349925,"ECCENTRICITY":0.00517336,"INCLINATION":97.8614,"RA_OF_ASC_NODE":69.8031,"ARG_OF_PERICENTER":203.349,"MEAN_ANOMALY":272.0482,"EPHEMERIS_TYPE":0,"CLASSIFICATION_TYPE":"U","NORAD_CAT_ID":37731,"ELEMENT_SET_NO":999,"REV_AT_EPOCH":79671,"BSTAR":9.0996015e-5,"MEAN_MOTION_DOT":6.72e-6,"MEAN_MOTION_DDOT":0},{"OBJECT_NAME":"H-2A R/B","OBJECT_ID":"2012-025E","EPOCH":"2026-04-23T10:17:13.111008","MEAN_MOTION":14.95428775,"ECCENTRICITY":0.00444123,"INCLINATION":98.4797,"RA_OF_ASC_NODE":84.0889,"ARG_OF_PERICENTER":164.6454,"MEAN_ANOMALY":195.6124,"EPHEMERIS_TYPE":0,"CLASSIFICATION_TYPE":"U","NORAD_CAT_ID":38341,"ELEMENT_SET_NO":999,"REV_AT_EPOCH":75490,"BSTAR":0.00010709327,"MEAN_MOTION_DOT":1.136e-5,"MEAN_MOTION_DDOT":0},{"OBJECT_NAME":"SHIJIAN-16 (SJ-16)","OBJECT_ID":"2013-057A","EPOCH":"2026-04-23T13:01:33.809088","MEAN_MOTION":14.92470316,"ECCENTRICITY":0.00160875,"INCLINATION":74.9708,"RA_OF_ASC_NODE":100.1663,"ARG_OF_PERICENTER":357.7065,"MEAN_ANOMALY":2.4046,"EPHEMERIS_TYPE":0,"CLASSIFICATION_TYPE":"U","NORAD_CAT_ID":39358,"ELEMENT_SET_NO":999,"REV_AT_EPOCH":67819,"BSTAR":7.8034847e-5,"MEAN_MOTION_DOT":7.73e-6,"MEAN_MOTION_DDOT":0},{"OBJECT_NAME":"SL-4 R/B","OBJECT_ID":"2014-021B","EPOCH":"2026-04-23T03:30:06.306912","MEAN_MOTION":15.40615325,"ECCENTRICITY":0.00928245,"INCLINATION":51.6055,"RA_OF_ASC_NODE":120.146,"ARG_OF_PERICENTER":265.6477,"MEAN_ANOMALY":93.3897,"EPHEMERIS_TYPE":0,"CLASSIFICATION_TYPE":"U","NORAD_CAT_ID":39679,"ELEMENT_SET_NO":999,"REV_AT_EPOCH":66312,"BSTAR":0.00019900976,"MEAN_MOTION_DOT":9.143e-5,"MEAN_MOTION_DDOT":0},{"OBJECT_NAME":"ALOS-2","OBJECT_ID":"2014-029A","EPOCH":"2026-04-23T13:25:38.440416","MEAN_MOTION":14.79467441,"ECCENTRICITY":0.00017941,"INCLINATION":97.9199,"RA_OF_ASC_NODE":211.5048,"ARG_OF_PERICENTER":88.2272,"MEAN_ANOMALY":271.9145,"EPHEMERIS_TYPE":0,"CLASSIFICATION_TYPE":"U","NORAD_CAT_ID":39766,"ELEMENT_SET_NO":999,"REV_AT_EPOCH":64350,"BSTAR":3.3681588e-5,"MEAN_MOTION_DOT":2.0e-6,"MEAN_MOTION_DDOT":0},{"OBJECT_NAME":"YAOGAN-29","OBJECT_ID":"2015-069A","EPOCH":"2026-04-23T14:17:10.476960","MEAN_MOTION":14.83040177,"ECCENTRICITY":0.00016178,"INCLINATION":98.0077,"RA_OF_ASC_NODE":142.1325,"ARG_OF_PERICENTER":143.169,"MEAN_ANOMALY":216.9635,"EPHEMERIS_TYPE":0,"CLASSIFICATION_TYPE":"U","NORAD_CAT_ID":41038,"ELEMENT_SET_NO":999,"REV_AT_EPOCH":56253,"BSTAR":5.3679093e-5,"MEAN_MOTION_DOT":3.82e-6,"MEAN_MOTION_DDOT":0},{"OBJECT_NAME":"ASTRO-H (HITOMI)","OBJECT_ID":"2016-012A","EPOCH":"2026-04-23T04:23:45.997728","MEAN_MOTION":15.10258699,"ECCENTRICITY":0.00094069,"INCLINATION":30.9993,"RA_OF_ASC_NODE":69.3537,"ARG_OF_PERICENTER":59.0319,"MEAN_ANOMALY":301.1243,"EPHEMERIS_TYPE":0,"CLASSIFICATION_TYPE":"U","NORAD_CAT_ID":41337,"ELEMENT_SET_NO":999,"REV_AT_EPOCH":55896,"BSTAR":0.00013217149,"MEAN_MOTION_DOT":2.313e-5,"MEAN_MOTION_DDOT":0}]
