ALOS (DAICHI)           
1 28931U 06002A   26113.43156745  .00000814  00000+0  14430-3 0  9996
2 28931  98.1283  69.1883 0001891 106.4049 253.7365 14.69932312 80058
H-2A R/B                
1 28932U 06002B   26113.39902130  .00005803  00000+0  28462-3 0  9992
2 28932  98.2499 264.3249 0052582  89.8207 270.9050 15.17342511101211
RESURS-DK 1             
1 29228U 06021A   26113.42965717  .00001643  00000+0  98999-4 0  9997
2 29228  69.9297 121.2721 0003063 344.9718  15.1356 15.12973621 94293
CZ-4B R/B               
1 29507U 06046C   26113.12949700  .00003636  00000+0  18303-3 0  9999
2 29507  97.5510 157.9108 0034583 112.8103 247.6789 15.17325741 66788
CZ-2C R/B               
1 31114U 07010B   26113.60268606  .00000076  00000+0  53473-4 0  9993
2 31114  98.4033 224.6414 0059442 162.5990 197.7243 14.20261510986095
COSMO-SKYMED 1          
1 31598U 07023A   26113.59102278  .00001949  00000+0  17538-3 0  9994
2 31598  97.8870 304.9929 0001170 100.5515 259.5838 14.96825453 21627
COSMOS 2428             
1 31792U 07029A   26113.34793434 -.00000202  00000+0 -82882-4 0  9997
2 31792  70.9391 109.6077 0009199 228.1212 131.9125 14.12945940970400
SL-16 R/B               
1 31793U 07029B   26113.33487410  .00000254  00000+0  15657-3 0  9991
2 31793  70.9740  78.5339 0002533 268.5262 243.5837 14.14843319971682
KORONAS-FOTON           
1 33504U 09003A   26113.35465919  .00009437  00000+0  20248-3 0  9993
2 33504  82.4309 229.3984 0009955   0.6503 359.4756 15.44498639952639
CZ-2C R/B               
1 37731U 11030B   26113.40750291  .00000672  00000+0  90996-4 0  9998
2 37731  97.8614  69.8031 0051733 203.3490 272.0482 14.81349925796716
H-2A R/B                
1 38341U 12025E   26113.42862397  .00001136  00000+0  10709-3 0  9993
2 38341  98.4797  84.0889 0044412 164.6454 195.6124 14.95428775754902
SHIJIAN-16 (SJ-16)      
1 39358U 13057A   26113.54275242  .00000773  00000+0  78035-4 0  9991
2 39358  74.9708 100.1663 0016087 357.7065   2.4046 14.92470316678191
SL-4 R/B                
1 39679U 14021B   26113.14590633  .00009143  00000+0  19901-3 0  9995
2 39679  51.6055 120.1460 0092824 265.6477  93.3897 15.40615325663123
ALOS-2                  
1 39766U 14029A   26113.55947269  .00000200  00000+0  33682-4 0  9994
2 39766  97.9199 211.5048 0001794  88.2272 271.9145 14.79467441643502
YAOGAN-29               
1 41038U 15069A   26113.59526015  .00000382  00000+0  53679-4 0  9999
2 41038  98.0077 142.1325 0001617 143.1690 216.9635 14.83040177562534
ASTRO-H (HITOMI)        
1 41337U 16012A   26113.18317127  .00002313  00000+0  13217-3 0  9996
2 41337  30.9993  69.3537 0009406  59.0319 301.1243 15.10258699558965
